[
    {
        "Altitude(m)": 559864.0623155761,
        "Argument of Periapsis(deg)": 0.006622991110713501,
        "Eccentricity": 0.0,
        "Inclination(deg)": 53.0,
        "Latitude(deg)": 52.989599975696414,
        "Longitude(deg)": -49.575642442514976,
        "Mean Anomaly(deg)": -266.2720071324224,
        "RAAN(deg)": 314.990143368528,
        "Satellite Name": "Starlink Shell 1 1391",
        "Satellite Number": 1391,
        "Semi-Major Axis(m)": 6931778.249405717,
        "Time(s)": 190
    },
    {
        "Altitude(m)": 559850.838318043,
        "Argument of Periapsis(deg)": 0.0069715695902247375,
        "Eccentricity": 0.0,
        "Inclination(deg)": 53.0,
        "Latitude(deg)": 52.93105561739253,
        "Longitude(deg)": -48.583723280377036,
        "Mean Anomaly(deg)": -265.6451759288657,
        "RAAN(deg)": 314.9896245984506,
        "Satellite Name": "Starlink Shell 1 1391",
        "Satellite Number": 1391,
        "Semi-Major Axis(m)": 6931778.249405717,
        "Time(s)": 200
    },
    {
        "Altitude(m)": 559835.575179067,
        "Argument of Periapsis(deg)": 0.007320148069735974,
        "Eccentricity": 0.0,
        "Inclination(deg)": 53.0,
        "Latitude(deg)": 52.863557180303594,
        "Longitude(deg)": -47.59479859204969,
        "Mean Anomaly(deg)": -265.018344725309,
        "RAAN(deg)": 314.98910582837306,
        "Satellite Name": "Starlink Shell 1 1391",
        "Satellite Number": 1391,
        "Semi-Major Axis(m)": 6931778.249405717,
        "Time(s)": 210
    },
    {
        "Altitude(m)": 559818.2820986051,
        "Argument of Periapsis(deg)": 0.007668726549247212,
        "Eccentricity": 0.0,
        "Inclination(deg)": 53.0,
        "Latitude(deg)": 52.78715386444394,
        "Longitude(deg)": -46.60927389050364,
        "Mean Anomaly(deg)": -264.39151352175224,
        "RAAN(deg)": 314.9885870582956,
        "Satellite Name": "Starlink Shell 1 1391",
        "Satellite Number": 1391,
        "Semi-Major Axis(m)": 6931778.249405717,
        "Time(s)": 220
    },
    {
        "Altitude(m)": 559798.9694984201,
        "Argument of Periapsis(deg)": 0.00801730502875845,
        "Eccentricity": 0.0,
        "Inclination(deg)": 53.0,
        "Latitude(deg)": 52.70190093395743,
        "Longitude(deg)": -45.627544902395904,
        "Mean Anomaly(deg)": -263.7646823181955,
        "RAAN(deg)": 314.9880682882182,
        "Satellite Name": "Starlink Shell 1 1391",
        "Satellite Number": 1391,
        "Semi-Major Axis(m)": 6931778.249405717,
        "Time(s)": 230
    },
    {
        "Altitude(m)": 559777.6490170133,
        "Argument of Periapsis(deg)": 0.008365883508269684,
        "Eccentricity": 0.0,
        "Inclination(deg)": 53.0,
        "Latitude(deg)": 52.607859524753536,
        "Longitude(deg)": -44.64999605923025,
        "Mean Anomaly(deg)": -263.13785111463875,
        "RAAN(deg)": 314.98754951814067,
        "Satellite Name": "Starlink Shell 1 1391",
        "Satellite Number": 1391,
        "Semi-Major Axis(m)": 6931778.249405717,
        "Time(s)": 240
    },
    {
        "Altitude(m)": 559754.3335039298,
        "Argument of Periapsis(deg)": 0.008714461987780921,
        "Eccentricity": 0.0,
        "Inclination(deg)": 53.0,
        "Latitude(deg)": 52.505096434837284,
        "Longitude(deg)": -43.67700057470271,
        "Mean Anomaly(deg)": -262.51101991108214,
        "RAAN(deg)": 314.98703074806315,
        "Satellite Name": "Starlink Shell 1 1391",
        "Satellite Number": 1391,
        "Semi-Major Axis(m)": 6931778.249405717,
        "Time(s)": 250
    },
    {
        "Altitude(m)": 559729.0370135002,
        "Argument of Periapsis(deg)": 0.009063040467292158,
        "Eccentricity": 0.0,
        "Inclination(deg)": 53.0,
        "Latitude(deg)": 52.39368389897097,
        "Longitude(deg)": -42.708919087165725,
        "Mean Anomaly(deg)": -261.88418870752537,
        "RAAN(deg)": 314.98651197798574,
        "Satellite Name": "Starlink Shell 1 1391",
        "Satellite Number": 1391,
        "Semi-Major Axis(m)": 6931778.249405717,
        "Time(s)": 260
    },
    {
        "Altitude(m)": 559701.7747979894,
        "Argument of Periapsis(deg)": 0.009411618946803396,
        "Eccentricity": 0.0,
        "Inclination(deg)": 53.0,
        "Latitude(deg)": 52.27369934939272,
        "Longitude(deg)": -41.74609838393039,
        "Mean Anomaly(deg)": -261.2573575039687,
        "RAAN(deg)": 314.9859932079082,
        "Satellite Name": "Starlink Shell 1 1391",
        "Satellite Number": 1391,
        "Semi-Major Axis(m)": 6931778.249405717,
        "Time(s)": 270
    },
    {
        "Altitude(m)": 559672.5633001317,
        "Argument of Periapsis(deg)": 0.009760197426314633,
        "Eccentricity": 0.0,
        "Inclination(deg)": 53.0,
        "Latitude(deg)": 52.1452251642876,
        "Longitude(deg)": -40.78887172246043,
        "Mean Anomaly(deg)": -260.63052630041193,
        "RAAN(deg)": 314.98547443783076,
        "Satellite Name": "Starlink Shell 1 1391",
        "Satellite Number": 1391,
        "Semi-Major Axis(m)": 6931778.249405717,
        "Time(s)": 280
    },
    {
        "Altitude(m)": 559641.4201451249,
        "Argument of Periapsis(deg)": 0.01010877590582587,
        "Eccentricity": 0.0,
        "Inclination(deg)": 53.0,
        "Latitude(deg)": 52.00834840599933,
        "Longitude(deg)": -39.83755772605281,
        "Mean Anomaly(deg)": -260.00369509685527,
        "RAAN(deg)": 314.9849556677533,
        "Satellite Name": "Starlink Shell 1 1391",
        "Satellite Number": 1391,
        "Semi-Major Axis(m)": 6931778.249405717,
        "Time(s)": 290
    },
    {
        "Altitude(m)": 559608.3641320056,
        "Argument of Periapsis(deg)": 0.010457354385337106,
        "Eccentricity": 0.0,
        "Inclination(deg)": 53.0,
        "Latitude(deg)": 51.86316055057739,
        "Longitude(deg)": -38.89245936591268,
        "Mean Anomaly(deg)": -259.37686389329855,
        "RAAN(deg)": 314.98443689767583,
        "Satellite Name": "Starlink Shell 1 1391",
        "Satellite Number": 1391,
        "Semi-Major Axis(m)": 6931778.249405717,
        "Time(s)": 300
    },
    {
        "Altitude(m)": 559573.4152244788,
        "Argument of Periapsis(deg)": 0.010805932864848343,
        "Eccentricity": 0.0,
        "Inclination(deg)": 53.0,
        "Latitude(deg)": 51.7097572106326,
        "Longitude(deg)": -37.95386454391858,
        "Mean Anomaly(deg)": -258.75003268974183,
        "RAAN(deg)": 314.9839181275983,
        "Satellite Name": "Starlink Shell 1 1391",
        "Satellite Number": 1391,
        "Semi-Major Axis(m)": 6931778.249405717,
        "Time(s)": 310
    },
    {
        "Altitude(m)": 559536.5945411552,
        "Argument of Periapsis(deg)": 0.01115451134435958,
        "Eccentricity": 0.0,
        "Inclination(deg)": 53.0,
        "Latitude(deg)": 51.548237853231235,
        "Longitude(deg)": -37.022045249012955,
        "Mean Anomaly(deg)": -258.1232014861851,
        "RAAN(deg)": 314.9833993575209,
        "Satellite Name": "Starlink Shell 1 1391",
        "Satellite Number": 1391,
        "Semi-Major Axis(m)": 6931778.249405717,
        "Time(s)": 320
    },
    {
        "Altitude(m)": 559497.9243452145,
        "Argument of Periapsis(deg)": 0.011503089823870818,
        "Eccentricity": 0.0,
        "Inclination(deg)": 53.0,
        "Latitude(deg)": 51.37870551457818,
        "Longitude(deg)": -36.097256798598195,
        "Mean Anomaly(deg)": -257.4963702826284,
        "RAAN(deg)": 314.9828805874434,
        "Satellite Name": "Starlink Shell 1 1391",
        "Satellite Number": 1391,
        "Semi-Major Axis(m)": 6931778.249405717,
        "Time(s)": 330
    },
    {
        "Altitude(m)": 559457.428033535,
        "Argument of Periapsis(deg)": 0.011851668303382053,
        "Eccentricity": 0.0,
        "Inclination(deg)": 53.0,
        "Latitude(deg)": 51.20126651316969,
        "Longitude(deg)": -35.179738675516305,
        "Mean Anomaly(deg)": -256.8695390790717,
        "RAAN(deg)": 314.9823618173659,
        "Satellite Name": "Starlink Shell 1 1391",
        "Satellite Number": 1391,
        "Semi-Major Axis(m)": 6931778.249405717,
        "Time(s)": 340
    },
    {
        "Altitude(m)": 559415.1301252296,
        "Argument of Periapsis(deg)": 0.012200246782893292,
        "Eccentricity": 0.0,
        "Inclination(deg)": 53.0,
        "Latitude(deg)": 51.01603016302563,
        "Longitude(deg)": -34.26971393193275,
        "Mean Anomaly(deg)": -256.242707875515,
        "RAAN(deg)": 314.98184304728846,
        "Satellite Name": "Starlink Shell 1 1391",
        "Satellite Number": 1391,
        "Semi-Major Axis(m)": 6931778.249405717,
        "Time(s)": 350
    },
    {
        "Altitude(m)": 559371.0562496396,
        "Argument of Periapsis(deg)": 0.012548825262404526,
        "Eccentricity": 0.0,
        "Inclination(deg)": 53.0,
        "Latitude(deg)": 50.823108488518045,
        "Longitude(deg)": -33.367388669490815,
        "Mean Anomaly(deg)": -255.61587667195823,
        "RAAN(deg)": 314.981324277211,
        "Satellite Name": "Starlink Shell 1 1391",
        "Satellite Number": 1391,
        "Semi-Major Axis(m)": 6931778.249405717,
        "Time(s)": 360
    },
    {
        "Altitude(m)": 559325.2331337893,
        "Argument of Periapsis(deg)": 0.012897403741915765,
        "Eccentricity": 0.0,
        "Inclination(deg)": 53.0,
        "Latitude(deg)": 50.62261594221398,
        "Longitude(deg)": -32.47295310461515,
        "Mean Anomaly(deg)": -254.98904546840154,
        "RAAN(deg)": 314.9808055071335,
        "Satellite Name": "Starlink Shell 1 1391",
        "Satellite Number": 1391,
        "Semi-Major Axis(m)": 6931778.249405717,
        "Time(s)": 370
    }
]